$$SOE
2460154.500000000, A.D. 2023-Jul-29 00:00:00.0000, -3.155086679510055E+08, 8.397192710270984E+07, 8.552769972244624E+06,
2460161.500000000, A.D. 2023-Aug-05 00:00:00.0000, -3.196704444529221E+08, 7.188166965638362E+07, 8.474446983501803E+06,
2460168.500000000, A.D. 2023-Aug-12 00:00:00.0000, -3.233916073722003E+08, 5.969227869585466E+07, 8.384443068403855E+06,
2460175.500000000, A.D. 2023-Aug-19 00:00:00.0000, -3.266718853102319E+08, 4.742145105771317E+07, 8.283008317324137E+06,
2460182.500000000, A.D. 2023-Aug-26 00:00:00.0000, -3.295117983131689E+08, 3.508663942032549E+07, 8.170407676846724E+06,
2460189.500000000, A.D. 2023-Sep-02 00:00:00.0000, -3.319126254843583E+08, 2.270501419065850E+07, 8.046919644911603E+06,
2460196.500000000, A.D. 2023-Sep-09 00:00:00.0000, -3.338763709878998E+08, 1.029342877594267E+07, 7.912834968258125E+06,
2460203.500000000, A.D. 2023-Sep-16 00:00:00.0000, -3.354057286338452E+08, -2.131611824089370E+06, 7.768455330394436E+06,
2460210.500000000, A.D. 2023-Sep-23 00:00:00.0000, -3.365040449689610E+08, -1.455397885844714E+07, 7.614092022726880E+06,
2460217.500000000, A.D. 2023-Sep-30 00:00:00.0000, -3.371752815310948E+08, -2.695794298094997E+07, 7.450064733724634E+06,
2460224.500000000, A.D. 2023-Oct-07 00:00:00.0000, -3.374239789173220E+08, -3.932819336428884E+07, 7.276700633043204E+06,
2460231.500000000, A.D. 2023-Oct-14 00:00:00.0000, -3.372552219026489E+08, -5.164985620825455E+07, 7.094333388940962E+06,
2460238.500000000, A.D. 2023-Oct-21 00:00:00.0000, -3.366746026310374E+08, -6.390851117677515E+07, 6.903301957950853E+06,
2460245.500000000, A.D. 2023-Oct-28 00:00:00.0000, -3.356881835191995E+08, -7.609020365496695E+07, 6.703949465779912E+06,
2460252.500000000, A.D. 2023-Nov-04 00:00:00.0000, -3.343024613129386E+08, -8.818145376455224E+07, 6.496622233444728E+06,
2460259.500000000, A.D. 2023-Nov-11 00:00:00.0000, -3.325243322898313E+08, -1.001692629152147E+08, 6.281668884591516E+06,
2460266.500000000, A.D. 2023-Nov-18 00:00:00.0000, -3.303610585377421E+08, -1.120411181358017E+08, 6.059439509540722E+06,
2460273.500000000, A.D. 2023-Nov-25 00:00:00.0000, -3.278202353595099E+08, -1.237849943432367E+08, 5.830284881788261E+06,
2460280.500000000, A.D. 2023-Dec-02 00:00:00.0000, -3.249097598752640E+08, -1.353893547413592E+08, 5.594555723432854E+06,
2460287.500000000, A.D. 2023-Dec-09 00:00:00.0000, -3.216378008237585E+08, -1.468431495882358E+08, 5.352602006951645E+06,
2460294.500000000, A.D. 2023-Dec-16 00:00:00.0000, -3.180127693359951E+08, -1.581358134953820E+08, 5.104772266865000E+06,
2460301.500000000, A.D. 2023-Dec-23 00:00:00.0000, -3.140432903764243E+08, -1.692572607418651E+08, 4.851412944001041E+06,
2460308.500000000, A.D. 2023-Dec-30 00:00:00.0000, -3.097381762196534E+08, -1.801978777174976E+08, 4.592867969153188E+06,
2460315.500000000, A.D. 2024-Jan-06 00:00:00.0000, -3.051064037495127E+08, -1.909485150123954E+08, 4.329478553492464E+06,
2460322.500000000, A.D. 2024-Jan-13 00:00:00.0000, -3.001570924125900E+08, -2.015004811077075E+08, 4.061582744686723E+06,
2460329.500000000, A.D. 2024-Jan-20 00:00:00.0000, -2.948994815950152E+08, -2.118455347174079E+08, 3.789514886561081E+06,
2460336.500000000, A.D. 2024-Jan-27 00:00:00.0000, -2.893429094266936E+08, -2.219758752513942E+08, 3.513605219690919E+06,
2460343.500000000, A.D. 2024-Feb-03 00:00:00.0000, -2.834967934041340E+08, -2.318841324663019E+08, 3.234179582117483E+06,
2460350.500000000, A.D. 2024-Feb-10 00:00:00.0000, -2.773706125141174E+08, -2.415633557120245E+08, 2.951559157747999E+06,
2460357.500000000, A.D. 2024-Feb-17 00:00:00.0000, -2.709738906820994E+08, -2.510070028774591E+08, 2.666060257167593E+06,
2460364.500000000, A.D. 2024-Feb-24 00:00:00.0000, -2.643161814727034E+08, -2.602089291200726E+08, 2.377994126050100E+06,
2460371.500000000, A.D. 2024-Mar-02 00:00:00.0000, -2.574070539718753E+08, -2.691633754977242E+08, 2.087666773516238E+06,
2460378.500000000, A.D. 2024-Mar-09 00:00:00.0000, -2.502560796647385E+08, -2.778649576407292E+08, 1.795378800446540E+06,
2460385.500000000, A.D. 2024-Mar-16 00:00:00.0000, -2.428728198621192E+08, -2.863086543339306E+08, 1.501425205552787E+06,
2460392.500000000, A.D. 2024-Mar-23 00:00:00.0000, -2.352668137250075E+08, -2.944897949596996E+08, 1.206095267317072E+06,
2460399.500000000, A.D. 2024-Mar-30 00:00:00.0000, -2.274475690721020E+08, -3.024040458820279E+08, 9.096727031095922E+05,
2460406.500000000, A.D. 2024-Apr-06 00:00:00.0000, -2.194245556585593E+08, -3.100473991884003E+08, 6.124358046378344E+05,
2460413.500000000, A.D. 2024-Apr-13 00:00:00.0000, -2.112071973220369E+08, -3.174161629984046E+08, 3.146572903940827E+05,
2460420.500000000, A.D. 2024-Apr-20 00:00:00.0000, -2.028048638975730E+08, -3.245069507008561E+08, 1.660417957799137E+04,
2460427.500000000, A.D. 2024-Apr-27 00:00:00.0000, -1.942268643679666E+08, -3.313166697118484E+08, -2.814622206841111E+05,
2460434.500000000, A.D. 2024-May-04 00:00:00.0000, -1.854824411117861E+08, -3.378425104824688E+08, -5.792862818324268E+05,
2460441.500000000, A.D. 2024-May-11 00:00:00.0000, -1.765807649615900E+08, -3.440819358792668E+08, -8.766180057754517E+05,
2460448.500000000, A.D. 2024-May-18 00:00:00.0000, -1.675309309432031E+08, -3.500326709341112E+08, -1.173212969381109E+06,
2460455.500000000, A.D. 2024-May-25 00:00:00.0000, -1.583419546266516E+08, -3.556926929853951E+08, -1.468832265545592E+06,
2460462.500000000, A.D. 2024-Jun-01 00:00:00.0000, -1.490227689859352E+08, -3.610602222789516E+08, -1.763242451877072E+06,
2460469.500000000, A.D. 2024-Jun-08 00:00:00.0000, -1.395822214792933E+08, -3.661337130596479E+08, -2.056215532169029E+06,
2460476.500000000, A.D. 2024-Jun-15 00:00:00.0000, -1.300290709099080E+08, -3.709118446149858E+08, -2.347528963386714E+06,
2460483.500000000, A.D. 2024-Jun-22 00:00:00.0000, -1.203719850339547E+08, -3.753935111004370E+08, -2.636965500509351E+06,
2460490.500000000, A.D. 2024-Jun-29 00:00:00.0000, -1.106195410013431E+08, -3.795778119703037E+08, -2.924312834089756E+06,
2460497.500000000, A.D. 2024-Jul-06 00:00:00.0000, -1.007802259503021E+08, -3.834640454881508E+08, -3.209363465845525E+06,
2460504.500000000, A.D. 2024-Jul-13 00:00:00.0000, -9.086243577648114E+07, -3.870517024955468E+08, -3.491914770920008E+06,
2460511.500000000, A.D. 2024-Jul-20 00:00:00.0000, -8.087447403486609E+07, -3.903404592902201E+08, -3.771768971296787E+06,
2460518.500000000, A.D. 2024-Jul-27 00:00:00.0000, -7.082455160430887E+07, -3.933301705697904E+08, -4.048733039124042E+06,
2460525.500000000, A.D. 2024-Aug-03 00:00:00.0000, -6.072078681650227E+07, -3.960208628108003E+08, -4.322618586210728E+06,
2460532.500000000, A.D. 2024-Aug-10 00:00:00.0000, -5.057120585913691E+07, -3.984127280810615E+08, -4.593241755962461E+06,
2460539.500000000, A.D. 2024-Aug-17 00:00:00.0000, -4.038374338207407E+07, -4.005061182570496E+08, -4.860423121113539E+06,
2460546.500000000, A.D. 2024-Aug-24 00:00:00.0000, -3.016624325622079E+07, -4.023015396629049E+08, -5.123987592381209E+06,
2460553.500000000, A.D. 2024-Aug-31 00:00:00.0000, -1.992645934909498E+07, -4.037996481873474E+08, -5.383764354286760E+06,
2460560.500000000, A.D. 2024-Sep-07 00:00:00.0000, -9.672055933146369E+06, -4.050012447466959E+08, -5.639586851856202E+06,
2460567.500000000, A.D. 2024-Sep-14 00:00:00.0000, 5.893923751994858E+05, -4.059072700921636E+08, -5.891292755092025E+06,
2460574.500000000, A.D. 2024-Sep-21 00:00:00.0000, 1.085039913214655E+07, -4.065187985416819E+08, -6.138723681828648E+06,
2460581.500000000, A.D. 2024-Sep-28 00:00:00.0000, 2.110356256555741E+07, -4.068370338551737E+08, -6.381724898452520E+06,
2460588.500000000, A.D. 2024-Oct-05 00:00:00.0000, 3.134156373964698E+07, -4.068633072431801E+08, -6.620145335297704E+06,
2460595.500000000, A.D. 2024-Oct-12 00:00:00.0000, 4.155716603691962E+07, -4.065990745202447E+08, -6.853837640261680E+06,
2460602.500000000, A.D. 2024-Oct-19 00:00:00.0000, 5.174321421870884E+07, -4.060459126637808E+08, -7.082658132328629E+06,
2460609.500000000, A.D. 2024-Oct-26 00:00:00.0000, 6.189263304557093E+07, -4.052055165703020E+08, -7.306466717818826E+06,
2460616.500000000, A.D. 2024-Nov-02 00:00:00.0000, 7.199842572856463E+07, -4.040796961508393E+08, -7.525126805451393E+06,
2460623.500000000, A.D. 2024-Nov-09 00:00:00.0000, 8.205367231979477E+07, -4.026703737406091E+08, -7.738505227678835E+06,
2460630.500000000, A.D. 2024-Nov-16 00:00:00.0000, 9.205152807767397E+07, -4.009795818186055E+08, -7.946472170824468E+06,
2460637.500000000, A.D. 2024-Nov-23 00:00:00.0000, 1.019852218622391E+08, -3.990094610822048E+08, -8.148901122459978E+06,
2460644.500000000, A.D. 2024-Nov-30 00:00:00.0000, 1.118480547767076E+08, -3.967622589143223E+08, -8.345668858529419E+06,
2460651.500000000, A.D. 2024-Dec-07 00:00:00.0000, 1.216333994819918E+08, -3.942403278172989E+08, -8.536655474143296E+06,
2460658.500000000, A.D. 2024-Dec-14 00:00:00.0000, 1.313346995021538E+08, -3.914461225838736E+08, -8.721744294684649E+06,
2460665.500000000, A.D. 2024-Dec-21 00:00:00.0000, 1.409454662083892E+08, -3.883821974389469E+08, -8.900821555877835E+06,
2460672.500000000, A.D. 2024-Dec-28 00:00:00.0000, 1.504592754609095E+08, -3.850512061115802E+08, -9.073776276263893E+06,
2460679.500000000, A.D. 2025-Jan-04 00:00:00.0000, 1.598697665138983E+08, -3.814559024553312E+08, -9.240500366088092E+06,
2460686.500000000, A.D. 2025-Jan-11 00:00:00.0000, 1.691706413696235E+08, -3.775991399532718E+08, -9.400888669737577E+06,
2460693.500000000, A.D. 2025-Jan-18 00:00:00.0000, 1.783556636712630E+08, -3.734838710225239E+08, -9.554838932498932E+06,
2460700.500000000, A.D. 2025-Jan-25 00:00:00.0000, 1.874186573841758E+08, -3.691131465886863E+08, -9.702251752542824E+06,
2460707.500000000, A.D. 2025-Feb-01 00:00:00.0000, 1.963535054611670E+08, -3.644901159562814E+08, -9.843030537777722E+06,
2460714.500000000, A.D. 2025-Feb-08 00:00:00.0000, 2.051541485558200E+08, -3.596180269515412E+08, -9.977081471161470E+06,
$$EOE